STARLINK-36636          
1 67611U 26018Y   26043.83335647 -.00059391  00000+0 -31042-3 0  9993
2 67611  97.2748 108.4172 0001668  90.0116 332.9910 15.80886356  3359
STARLINK-36407          
1 67612U 26018Z   26043.83335647  .00035055  00000+0  18295-3 0  9998
2 67612  97.2843 108.4206 0001321  98.6766 329.5766 15.80824052  3452
STARLINK-36597          
1 67613U 26018AA  26043.83335647  .00158969  00000+0  81637-3 0  9999
2 67613  97.2845 108.4234 0001413  77.7317 356.3431 15.80796051  3351
NEONSAT-1A              
1 67614U 26019A   26043.75837028  .00002538  00000+0  17055-3 0  9995
2 67614  97.4093 168.2345 0012184 258.7730 101.2129 15.07597845  2060
ELECTRON KICK STAGE R/B 
1 67616U 26019C   26043.77223745  .00389438  44226-4  18857-2 0  9994
2 67616  97.4046 169.2804 0181861 212.8358 146.1498 15.62128407  2137
STARLINK-36548          
1 67617U 26020A   26043.83335647  .00075609  00000+0  46404-3 0  9998
2 67617  42.9983 293.3516 0001616 256.7833  39.3772 15.76323354  3396
STARLINK-36601          
1 67618U 26020B   26043.70750470  .00560282  00000+0  24656-2 0  9990
2 67618  42.9971 293.9684 0002117 252.8159 107.2481 15.82270490  2144
STARLINK-36119          
1 67619U 26020C   26043.83335647  .00068579  00000+0  42116-3 0  9994
2 67619  42.9987 293.3204 0002090 258.8375  49.7523 15.76341886  3396
STARLINK-36607          
1 67620U 26020D   26043.70573071  .00748956  00000+0  32107-2 0  9999
2 67620  42.9973 293.9535 0003003 244.5669 115.4892 15.82353006  2145
STARLINK-36615          
1 67621U 26020E   26043.70637050  .00761239  00000+0  32525-2 0  9991
2 67621  42.9976 293.9593 0002250 267.8814  92.1800 15.82391532  2142
STARLINK-36614          
1 67622U 26020F   26043.83335647 -.00060252  00000+0 -36915-3 0  9990
2 67622  42.9987 293.2588 0002136 265.8527  67.6088 15.76393385  3398
STARLINK-36600          
1 67623U 26020G   26043.83335647  .00007454  00000+0  48741-4 0  9995
2 67623  43.0021 293.2894 0001687 261.5781  59.4469 15.76358904  3395
