CCSDS_OMM_VERS = 2.0
CREATION_DATE  = 
ORIGINATOR     = 

OBJECT_NAME    = STARLINK-36636
OBJECT_ID      = 2026-018Y
CENTER_NAME    = EARTH
REF_FRAME      = TEME
TIME_SYSTEM    = UTC
MEAN_ELEMENT_THEORY = SGP/SGP4

EPOCH          = 2026-02-12T20:00:01.999008
MEAN_MOTION    = 15.80886356
ECCENTRICITY   = .0001668
INCLINATION    = 97.2748
RA_OF_ASC_NODE = 108.4172
ARG_OF_PERICENTER = 90.0116
MEAN_ANOMALY   = 332.9910

EPHEMERIS_TYPE = 0
CLASSIFICATION_TYPE = U
NORAD_CAT_ID   = 67611
ELEMENT_SET_NO = 999
REV_AT_EPOCH   = 335
BSTAR          = -.31042E-3
MEAN_MOTION_DOT = -.59391E-3
MEAN_MOTION_DDOT = 0

CCSDS_OMM_VERS = 2.0
CREATION_DATE  = 
ORIGINATOR     = 

OBJECT_NAME    = STARLINK-36407
OBJECT_ID      = 2026-018Z
CENTER_NAME    = EARTH
REF_FRAME      = TEME
TIME_SYSTEM    = UTC
MEAN_ELEMENT_THEORY = SGP/SGP4

EPOCH          = 2026-02-12T20:00:01.999008
MEAN_MOTION    = 15.80824052
ECCENTRICITY   = .0001321
INCLINATION    = 97.2843
RA_OF_ASC_NODE = 108.4206
ARG_OF_PERICENTER = 98.6766
MEAN_ANOMALY   = 329.5766

EPHEMERIS_TYPE = 0
CLASSIFICATION_TYPE = U
NORAD_CAT_ID   = 67612
ELEMENT_SET_NO = 999
REV_AT_EPOCH   = 345
BSTAR          = .18295E-3
MEAN_MOTION_DOT = .35055E-3
MEAN_MOTION_DDOT = 0

CCSDS_OMM_VERS = 2.0
CREATION_DATE  = 
ORIGINATOR     = 

OBJECT_NAME    = STARLINK-36597
OBJECT_ID      = 2026-018AA
CENTER_NAME    = EARTH
REF_FRAME      = TEME
TIME_SYSTEM    = UTC
MEAN_ELEMENT_THEORY = SGP/SGP4

EPOCH          = 2026-02-12T20:00:01.999008
MEAN_MOTION    = 15.80796051
ECCENTRICITY   = .0001413
INCLINATION    = 97.2845
RA_OF_ASC_NODE = 108.4234
ARG_OF_PERICENTER = 77.7317
MEAN_ANOMALY   = 356.3431

EPHEMERIS_TYPE = 0
CLASSIFICATION_TYPE = U
NORAD_CAT_ID   = 67613
ELEMENT_SET_NO = 999
REV_AT_EPOCH   = 335
BSTAR          = .81637E-3
MEAN_MOTION_DOT = .158969E-2
MEAN_MOTION_DDOT = 0

CCSDS_OMM_VERS = 2.0
CREATION_DATE  = 
ORIGINATOR     = 

OBJECT_NAME    = NEONSAT-1A
OBJECT_ID      = 2026-019A
CENTER_NAME    = EARTH
REF_FRAME      = TEME
TIME_SYSTEM    = UTC
MEAN_ELEMENT_THEORY = SGP/SGP4

EPOCH          = 2026-02-12T18:12:03.192192
MEAN_MOTION    = 15.07597845
ECCENTRICITY   = .0012184
INCLINATION    = 97.4093
RA_OF_ASC_NODE = 168.2345
ARG_OF_PERICENTER = 258.7730
MEAN_ANOMALY   = 101.2129

EPHEMERIS_TYPE = 0
CLASSIFICATION_TYPE = U
NORAD_CAT_ID   = 67614
ELEMENT_SET_NO = 999
REV_AT_EPOCH   = 206
BSTAR          = .17055E-3
MEAN_MOTION_DOT = .2538E-4
MEAN_MOTION_DDOT = 0

CCSDS_OMM_VERS = 2.0
CREATION_DATE  = 
ORIGINATOR     = 

OBJECT_NAME    = ELECTRON KICK STAGE R/B
OBJECT_ID      = 2026-019C
CENTER_NAME    = EARTH
REF_FRAME      = TEME
TIME_SYSTEM    = UTC
MEAN_ELEMENT_THEORY = SGP/SGP4

EPOCH          = 2026-02-12T18:32:01.315680
MEAN_MOTION    = 15.62128407
ECCENTRICITY   = .0181861
INCLINATION    = 97.4046
RA_OF_ASC_NODE = 169.2804
ARG_OF_PERICENTER = 212.8358
MEAN_ANOMALY   = 146.1498

EPHEMERIS_TYPE = 0
CLASSIFICATION_TYPE = U
NORAD_CAT_ID   = 67616
ELEMENT_SET_NO = 999
REV_AT_EPOCH   = 213
BSTAR          = .18857E-2
MEAN_MOTION_DOT = .389438E-2
MEAN_MOTION_DDOT = .44226E-4

CCSDS_OMM_VERS = 2.0
CREATION_DATE  = 
ORIGINATOR     = 

OBJECT_NAME    = STARLINK-36548
OBJECT_ID      = 2026-020A
CENTER_NAME    = EARTH
REF_FRAME      = TEME
TIME_SYSTEM    = UTC
MEAN_ELEMENT_THEORY = SGP/SGP4

EPOCH          = 2026-02-12T20:00:01.999008
MEAN_MOTION    = 15.76323354
ECCENTRICITY   = .0001616
INCLINATION    = 42.9983
RA_OF_ASC_NODE = 293.3516
ARG_OF_PERICENTER = 256.7833
MEAN_ANOMALY   = 39.3772

EPHEMERIS_TYPE = 0
CLASSIFICATION_TYPE = U
NORAD_CAT_ID   = 67617
ELEMENT_SET_NO = 999
REV_AT_EPOCH   = 339
BSTAR          = .46404E-3
MEAN_MOTION_DOT = .75609E-3
MEAN_MOTION_DDOT = 0

CCSDS_OMM_VERS = 2.0
CREATION_DATE  = 
ORIGINATOR     = 

OBJECT_NAME    = STARLINK-36601
OBJECT_ID      = 2026-020B
CENTER_NAME    = EARTH
REF_FRAME      = TEME
TIME_SYSTEM    = UTC
MEAN_ELEMENT_THEORY = SGP/SGP4

EPOCH          = 2026-02-12T16:58:48.406080
MEAN_MOTION    = 15.82270490
ECCENTRICITY   = .0002117
INCLINATION    = 42.9971
RA_OF_ASC_NODE = 293.9684
ARG_OF_PERICENTER = 252.8159
MEAN_ANOMALY   = 107.2481

EPHEMERIS_TYPE = 0
CLASSIFICATION_TYPE = U
NORAD_CAT_ID   = 67618
ELEMENT_SET_NO = 999
REV_AT_EPOCH   = 214
BSTAR          = .24656E-2
MEAN_MOTION_DOT = .560282E-2
MEAN_MOTION_DDOT = 0

CCSDS_OMM_VERS = 2.0
CREATION_DATE  = 
ORIGINATOR     = 

OBJECT_NAME    = STARLINK-36119
OBJECT_ID      = 2026-020C
CENTER_NAME    = EARTH
REF_FRAME      = TEME
TIME_SYSTEM    = UTC
MEAN_ELEMENT_THEORY = SGP/SGP4

EPOCH          = 2026-02-12T20:00:01.999008
MEAN_MOTION    = 15.76341886
ECCENTRICITY   = .000209
INCLINATION    = 42.9987
RA_OF_ASC_NODE = 293.3204
ARG_OF_PERICENTER = 258.8375
MEAN_ANOMALY   = 49.7523

EPHEMERIS_TYPE = 0
CLASSIFICATION_TYPE = U
NORAD_CAT_ID   = 67619
ELEMENT_SET_NO = 999
REV_AT_EPOCH   = 339
BSTAR          = .42116E-3
MEAN_MOTION_DOT = .68579E-3
MEAN_MOTION_DDOT = 0

CCSDS_OMM_VERS = 2.0
CREATION_DATE  = 
ORIGINATOR     = 

OBJECT_NAME    = STARLINK-36607
OBJECT_ID      = 2026-020D
CENTER_NAME    = EARTH
REF_FRAME      = TEME
TIME_SYSTEM    = UTC
MEAN_ELEMENT_THEORY = SGP/SGP4

EPOCH          = 2026-02-12T16:56:15.133344
MEAN_MOTION    = 15.82353006
ECCENTRICITY   = .0003003
INCLINATION    = 42.9973
RA_OF_ASC_NODE = 293.9535
ARG_OF_PERICENTER = 244.5669
MEAN_ANOMALY   = 115.4892

EPHEMERIS_TYPE = 0
CLASSIFICATION_TYPE = U
NORAD_CAT_ID   = 67620
ELEMENT_SET_NO = 999
REV_AT_EPOCH   = 214
BSTAR          = .32107E-2
MEAN_MOTION_DOT = .748956E-2
MEAN_MOTION_DDOT = 0

CCSDS_OMM_VERS = 2.0
CREATION_DATE  = 
ORIGINATOR     = 

OBJECT_NAME    = STARLINK-36615
OBJECT_ID      = 2026-020E
CENTER_NAME    = EARTH
REF_FRAME      = TEME
TIME_SYSTEM    = UTC
MEAN_ELEMENT_THEORY = SGP/SGP4

EPOCH          = 2026-02-12T16:57:10.411200
MEAN_MOTION    = 15.82391532
ECCENTRICITY   = .000225
INCLINATION    = 42.9976
RA_OF_ASC_NODE = 293.9593
ARG_OF_PERICENTER = 267.8814
MEAN_ANOMALY   = 92.1800

EPHEMERIS_TYPE = 0
CLASSIFICATION_TYPE = U
NORAD_CAT_ID   = 67621
ELEMENT_SET_NO = 999
REV_AT_EPOCH   = 214
BSTAR          = .32525E-2
MEAN_MOTION_DOT = .761239E-2
MEAN_MOTION_DDOT = 0

CCSDS_OMM_VERS = 2.0
CREATION_DATE  = 
ORIGINATOR     = 

OBJECT_NAME    = STARLINK-36614
OBJECT_ID      = 2026-020F
CENTER_NAME    = EARTH
REF_FRAME      = TEME
TIME_SYSTEM    = UTC
MEAN_ELEMENT_THEORY = SGP/SGP4

EPOCH          = 2026-02-12T20:00:01.999008
MEAN_MOTION    = 15.76393385
ECCENTRICITY   = .0002136
INCLINATION    = 42.9987
RA_OF_ASC_NODE = 293.2588
ARG_OF_PERICENTER = 265.8527
MEAN_ANOMALY   = 67.6088

EPHEMERIS_TYPE = 0
CLASSIFICATION_TYPE = U
NORAD_CAT_ID   = 67622
ELEMENT_SET_NO = 999
REV_AT_EPOCH   = 339
BSTAR          = -.36915E-3
MEAN_MOTION_DOT = -.60252E-3
MEAN_MOTION_DDOT = 0

CCSDS_OMM_VERS = 2.0
CREATION_DATE  = 
ORIGINATOR     = 

OBJECT_NAME    = STARLINK-36600
OBJECT_ID      = 2026-020G
CENTER_NAME    = EARTH
REF_FRAME      = TEME
TIME_SYSTEM    = UTC
MEAN_ELEMENT_THEORY = SGP/SGP4

EPOCH          = 2026-02-12T20:00:01.999008
MEAN_MOTION    = 15.76358904
ECCENTRICITY   = .0001687
INCLINATION    = 43.0021
RA_OF_ASC_NODE = 293.2894
ARG_OF_PERICENTER = 261.5781
MEAN_ANOMALY   = 59.4469

EPHEMERIS_TYPE = 0
CLASSIFICATION_TYPE = U
NORAD_CAT_ID   = 67623
ELEMENT_SET_NO = 999
REV_AT_EPOCH   = 339
BSTAR          = .48741E-4
MEAN_MOTION_DOT = .7454E-4
MEAN_MOTION_DDOT = 0

